FENGYUN 1C DEB
1 37011U 99025ECT 21018.70555699  .00002171  00000-0  47957-3 0  9991
2 37011  98.9010 297.2106 0065747 349.0930  10.8836 14.57139056452698
FENGYUN 1C DEB
1 37012U 99025ECU 21005.66401770  .00000390  00000-0  30604-3 0  9995
2 37012  98.5783 334.7697 0216837 270.4059  87.2258 13.86968892339005
FENGYUN 1C DEB
1 37013U 99025ECV 20360.33140386  .00007431  00000-0  76848-3 0  9999
2 37013  98.4203  38.4604 0098699 328.5562  30.9775 14.86847822683265
FENGYUN 1C DEB
1 37014U 99025ECW 21020.11318804  .00001013  00000-0  48418-3 0  9994
2 37014  98.9779  75.9407 0039246 134.8244 225.6133 14.21047632566210
FENGYUN 1C DEB
1 37017U 99025ECZ 21019.50545546  .00000188  00000-0  61656-4 0  9995
2 37017  98.7304 300.8031 0353625 177.9107 182.3648 14.19539650356652
FENGYUN 1C DEB
1 37018U 99025EDA 21021.06499323  .00001301  00000-0  62374-3 0  9996
2 37018  98.5123 313.3749 0346303 323.4643  34.3336 13.93593296383986
FENGYUN 1C DEB
1 37019U 99025EDB 21015.46133671  .00000393  00000-0  15872-3 0  9996
2 37019  98.6874 100.6073 0201642 164.4724 196.2764 14.22841421391999
FENGYUN 1C DEB
1 37021U 99025EDD 21019.38157310  .00000233  00000-0  99955-4 0  9998
2 37021  98.5632  72.8808 0198695  97.5636 276.3486 14.23186017445625
FENGYUN 1C DEB
1 37024U 99025EDG 20359.74468505  .00005084  00000-0  93522-3 0  9990
2 37024  99.3350 178.7711 0031394 171.7585 188.4137 14.65834982595419
FENGYUN 1C DEB
1 37028U 99025EDL 21021.19095711  .00000622  00000-0  37960-3 0  9992
2 37028  99.3178 196.7840 0039447  69.4696 291.0699 14.09596213352243
FENGYUN 1C DEB
1 37030U 99025EDN 20359.18144853  .00002131  00000-0  85526-3 0  9997
2 37030  99.7095 145.3296 0032505 111.7904 248.6738 14.29184488631605
FENGYUN 1C DEB
1 37032U 99025EDQ 21021.25739941  .00003394  00000-0  25779-3 0  9998
2 37032  99.4068  21.1793 0076248 135.2339 225.5066 15.00829377701690
FENGYUN 1C DEB
1 37035U 99025EDT 21019.79825453  .00000865  00000-0  48877-3 0  9995
2 37035 100.6409 224.9715 0065503 313.3417  46.2301 14.12685709684682
FENGYUN 1C DEB
1 37036U 99025EDU 21017.07081363 -.00000039  00000-0  17407-5 0  9990
2 37036  98.8125  62.8610 0128905  19.9631 340.6512 14.01215773386550
FENGYUN 1C DEB
1 37038U 99025EDW 21019.11757075  .00004756  00000-0  19494-2 0  9993
2 37038  99.0359 159.3141 0057762 352.8251   7.2096 14.26712828660990
FENGYUN 1C DEB
1 37041U 99025EDZ 20360.47741566  .00000669  00000-0  46631-3 0  9995
2 37041  98.9412 240.9268 0166186 305.4243  53.1497 13.95686366672782
FENGYUN 1C DEB
1 37042U 99025EEA 21019.43221997  .00000695  00000-0  23401-3 0  9994
2 37042  98.6653  85.8494 0103728  40.1746 320.7050 14.37286202469232
FENGYUN 1C DEB
1 37043U 99025EEB 21020.85681982  .00004108  00000-0  88144-3 0  9995
2 37043  99.3180  64.8572 0084729 157.6406 202.8518 14.57055282381265
FENGYUN 1C DEB
1 37044U 99025EEC 21019.39814240  .00001148  00000-0  62359-3 0  9999
2 37044  98.9432 261.6822 0592723 106.2695 260.4456 13.49384294596238
FENGYUN 1C DEB
1 37046U 99025EEE 21018.37196768  .00000274  00000-0  15182-3 0  9997
2 37046  98.7035  57.0875 0055377  80.5413 280.2017 14.18143755387775
FENGYUN 1C DEB
1 37047U 99025EEF 21018.04083146  .00000305  00000-0  30841-3 0  9991
2 37047  99.1771 122.8258 0276376 248.3063 108.8450 13.69143881375108
FENGYUN 1C DEB
1 37048U 99025EEG 21020.74386444  .00000149  00000-0  19107-3 0  9997
2 37048  98.8751   5.0996 0257180 128.9264  44.4905 13.62707701378138
FENGYUN 1C DEB
1 37053U 99025EEM 21018.66211229  .00000719  00000-0  26855-3 0  9990
2 37053  99.1594 334.8664 0059318  26.1508 149.1120 14.34215281392811
FENGYUN 1C DEB
1 37054U 99025EEN 21017.79975091  .00000039  00000-0  38869-4 0  9992
2 37054  98.5555  52.3000 0103834 231.0097 128.1795 14.16577355390693
FENGYUN 1C DEB
1 37055U 99025EEP 21019.05620913  .00007303  00000-0  18964-2 0  9997
2 37055  98.6147 132.2591 0103458 246.1474 112.8848 14.46830895329643
FENGYUN 1C DEB
1 37056U 99025EEQ 21021.50208925  .00000254  00000-0  58157-4 0  9994
2 37056  98.8783 291.8187 0302939  69.7090 293.6381 14.40151096396358
FENGYUN 1C DEB
1 37057U 99025EER 21020.33105065  .00000037  00000-0  44028-4 0  9997
2 37057  99.0921  57.1364 0292172 359.9881   0.1226 13.93366266386896
FENGYUN 1C DEB
1 37058U 99025EES 20358.92040158  .00008922  00000-0  19323-2 0  9996
2 37058  96.6676 251.3827 0081702 175.5303 184.6647 14.56274408587912
FENGYUN 1C DEB
1 37060U 99025EEU 21017.78251375  .00000444  00000-0  33610-3 0  9998
2 37060  99.3064  45.9713 0081697 217.5254 142.0188 13.97934508376790
FENGYUN 1C DEB
1 37061U 99025EEV 21021.61620048  .00000682  00000-0  43120-3 0  9994
2 37061  98.0601 148.4012 0890050   5.2067 355.7585 12.90740042809986
FENGYUN 1C DEB
1 37064U 99025EEY 21019.18942955  .00001443  00000-0  10890-2 0  9993
2 37064  98.9073 193.4359 0137363  12.3150 348.1312 13.91381525565160
FENGYUN 1C DEB
1 37067U 99025EFB 21020.92410470  .00000601  00000-0  57470-3 0  9993
2 37067  99.4928 271.1799 0191575 157.5921 203.3738 13.76605847326835
FENGYUN 1C DEB
1 37068U 99025EFC 21015.53643334  .00014710  00000-0  71940-3 0  9996
2 37068  98.5943 303.0747 0073046   6.9012 353.3205 15.15974846646485
FENGYUN 1C DEB
1 37069U 99025EFD 21019.68566056  .00000568  00000-0  72852-3 0  9991
2 37069  95.8445  13.4512 0456446 343.1846  15.4569 13.28305599639076
FENGYUN 1C DEB
1 37076U 99025EFL 21018.12393039  .00000814  00000-0  47364-3 0  9990
2 37076  98.3107 335.7235 0176325 122.9713 238.8545 14.03478615627122
FENGYUN 1C DEB
1 37077U 99025EFM 21021.14648552  .00000137  00000-0  60400-4 0  9995
2 37077  99.0477 331.8280 0103341 168.9467 191.4022 14.36174058592789
FENGYUN 1C DEB
1 37079U 99025EFP 21020.93107737  .00000901  00000-0  42177-3 0  9997
2 37079  98.8848  94.1202 0020738 325.7407  34.2431 14.22684770390212
FENGYUN 1C DEB
1 37080U 99025EFQ 20363.79284304  .00001060  00000-0  62179-3 0  9999
2 37080  98.1509 187.0798 0177063 225.2842 133.3794 14.02496961624005
FENGYUN 1C DEB
1 37081U 99025EFR 21020.96417927  .00001421  00000-0  97413-3 0  9999
2 37081  98.7070 275.3123 0380381 167.3838 193.7166 13.71109813612392
COSMOS 2251 DEB
1 37084U 93036BFE 21020.55587342  .00000331  00000-0  41654-4 0  9998
2 37084  74.0344 121.9335 0140770 312.4690  46.4654 14.80253779397053
COSMOS 2251 DEB
1 37085U 93036BFF 21020.75672404  .00000689  00000-0  10215-3 0  9999
2 37085  73.9795 202.4065 0090290 110.1102 250.9815 14.74541929405342
COSMOS 2251 DEB
1 37086U 93036BFG 21020.39353819  .00001008  00000-0  20110-3 0  9997
2 37086  74.0022  63.0395 0058036 276.5529  82.9033 14.62346161426376
COSMOS 2251 DEB
1 37087U 93036BFH 21021.57810577  .00001469  00000-0  31209-3 0  9990
2 37087  74.0209 332.4667 0198717 156.7684 204.2617 14.48398441397557
COSMOS 2251 DEB
1 37088U 93036BFJ 21021.47925938  .00001228  00000-0  23031-3 0  9995
2 37088  74.0200  44.0270 0028608 265.0540  94.7363 14.65661135570972
COSMOS 2251 DEB
1 37089U 93036BFK 21020.16025621  .00000711  00000-0  25988-3 0  9990
2 37089  74.0449 173.0645 0204632 350.3179   9.4046 14.23885494405019
COSMOS 2251 DEB
1 37092U 93036BFN 21019.82347454  .00003155  00000-0  46169-3 0  9995
2 37092  74.0200  55.9736 0013198 199.5601 160.5069 14.76055207388557
COSMOS 2251 DEB
1 37093U 93036BFP 21021.32904495  .00001043  00000-0  17409-3 0  9997
2 37093  74.0205  46.5219 0158354  23.1471 337.6725 14.63377507449444
COSMOS 2251 DEB
1 37094U 93036BFQ 21005.63725904  .00000455  00000-0  18571-3 0  9997
2 37094  74.1133 148.5763 0097721 228.0446 131.2346 14.27526609587260
COSMOS 2251 DEB
1 37095U 93036BFR 21019.84335055 -.00000045  00000-0 -13902-4 0  9991
2 37095  73.8509  66.5444 0214771  89.6138 272.9597 13.93595776376668
COSMOS 2251 DEB
1 37101U 93036BFX 21006.38145647  .00000540  00000-0  15592-3 0  9994
2 37101  74.0403 247.2696 0062140  64.2725 296.4830 14.45943731395265
COSMOS 2251 DEB
1 37103U 93036BFZ 21020.70328488  .00004305  00000-0  35416-3 0  9994
2 37103  73.7824  23.6251 0056052 231.9782 127.6336 14.98256154432749
COSMOS 2251 DEB
1 37105U 93036BGB 20359.06690929  .00000507  00000-0  24471-3 0  9990
2 37105  73.8880 255.4368 0389232 192.5893 166.5299 13.88050509584542
COSMOS 2251 DEB
1 37108U 93036BGE 21019.62276089  .00000452  00000-0  18183-3 0  9998
2 37108  74.0489 100.4896 0118146 255.6208 103.1802 14.27293491599112
COSMOS 2251 DEB
1 37110U 93036BGG 21021.61507659  .00001490  00000-0  20754-3 0  9993
2 37110  73.7984 156.4617 0057237 262.2240  97.2433 14.77719660480406
COSMOS 2251 DEB
1 37111U 93036BGH 21018.67524435  .00009005  00000-0  38195-3 0  9995
2 37111  74.0097   5.6974 0031650 179.1682 180.9576 15.22758652327700
COSMOS 2251 DEB
1 37114U 93036BGL 21003.10902223  .00001619  00000-0  39884-3 0  9994
2 37114  73.8178 153.3624 0052926  69.0626 291.6187 14.52250574326896
COSMOS 2251 DEB
1 37118U 93036BGQ 20360.15322013  .00000860  00000-0  24822-3 0  9994
2 37118  74.0300 280.8664 0010545  82.8025 277.4332 14.46114084391688
COSMOS 2251 DEB
1 37120U 93036BGS 20359.71532762  .00001167  00000-0  36521-3 0  9991
2 37120  74.0170  24.4435 0048858 164.0783 196.1922 14.41098340574053
COSMOS 2251 DEB
1 37123U 93036BGV 20360.02964396  .00002877  00000-0  51899-3 0  9996
2 37123  73.9925 106.2007 0011891 339.6212 143.5123 14.66938785396830
COSMOS 2251 DEB
1 37124U 93036BGW 20359.33081139  .00001989  00000-0  51994-3 0  9993
2 37124  74.0131 352.1067 0083388 174.2416 185.9724 14.48008814587424
COSMOS 2251 DEB
1 37125U 93036BGX 21016.19833545  .00001687  00000-0  26316-3 0  9990
2 37125  74.0252 354.6945 0026957 245.9558 113.8793 14.73519397225542
COSMOS 2251 DEB
1 37126U 93036BGY 21020.85440334  .00000112  00000-0  23522-4 0  9998
2 37126  73.9511 230.2919 0135710 166.3465 194.1436 14.66368167404803
COSMOS 2251 DEB
1 37127U 93036BGZ 21011.03228766  .00001289  00000-0  36027-3 0  9991
2 37127  74.0093 295.4742 0036049  64.1821 296.3048 14.46834210385542
